[
    {
        "Altitude(m)": 624790.8385934955,
        "Argument of Periapsis(deg)": 0.0,
        "Eccentricity": 0.0,
        "Inclination(deg)": 60.0,
        "Latitude(deg)": -59.147247564010215,
        "Longitude(deg)": -83.96538254626083,
        "Mean Anomaly(deg)": -81.8182,
        "RAAN(deg)": 90.0,
        "Satellite Name": "Test1 413",
        "Satellite Number": 413,
        "Semi-Major Axis(m)": 6980739.136638005,
        "Time(s)": 0
    },
    {
        "Altitude(m)": 624737.4937338993,
        "Argument of Periapsis(deg)": 0.00010418945913296404,
        "Eccentricity": 0.0,
        "Inclination(deg)": 60.0,
        "Latitude(deg)": -58.99470255198408,
        "Longitude(deg)": -82.84587630562223,
        "Mean Anomaly(deg)": -81.19809385453817,
        "RAAN(deg)": 89.99957995086027,
        "Satellite Name": "Test1 413",
        "Satellite Number": 413,
        "Semi-Major Axis(m)": 6980739.136638005,
        "Time(s)": 10
    }
]